<?xml version="1.0" encoding="UTF-8"?>
<TrainingCenterDatabase xmlns="http://www.garmin.com/xmlschemas/TrainingCenterDatabase/v2">
  <Activities>
    <Activity Sport="Running">
      <Id>2026-09-06T14:00:00Z</Id>
      <Lap StartTime="2026-09-06T14:00:00Z">
        <TotalTimeSeconds>1200</TotalTimeSeconds>
        <DistanceMeters>3000</DistanceMeters>
        <Track>
          <Trackpoint><Time>2026-09-06T14:00:00Z</Time><Position><LatitudeDegrees>48.8600</LatitudeDegrees><LongitudeDegrees>2.3300</LongitudeDegrees></Position><AltitudeMeters>35</AltitudeMeters><DistanceMeters>0</DistanceMeters><HeartRateBpm><Value>128</Value></HeartRateBpm><Cadence>82</Cadence></Trackpoint>
          <Trackpoint><Time>2026-09-06T14:04:00Z</Time><Position><LatitudeDegrees>48.8625</LatitudeDegrees><LongitudeDegrees>2.3320</LongitudeDegrees></Position><AltitudeMeters>38</AltitudeMeters><DistanceMeters>600</DistanceMeters><HeartRateBpm><Value>138</Value></HeartRateBpm><Cadence>84</Cadence></Trackpoint>
          <Trackpoint><Time>2026-09-06T14:08:00Z</Time><Position><LatitudeDegrees>48.8650</LatitudeDegrees><LongitudeDegrees>2.3340</LongitudeDegrees></Position><AltitudeMeters>42</AltitudeMeters><DistanceMeters>1200</DistanceMeters><HeartRateBpm><Value>144</Value></HeartRateBpm><Cadence>85</Cadence></Trackpoint>
          <Trackpoint><Time>2026-09-06T14:12:00Z</Time><Position><LatitudeDegrees>48.8680</LatitudeDegrees><LongitudeDegrees>2.3360</LongitudeDegrees></Position><AltitudeMeters>40</AltitudeMeters><DistanceMeters>1800</DistanceMeters><HeartRateBpm><Value>148</Value></HeartRateBpm><Cadence>86</Cadence></Trackpoint>
          <Trackpoint><Time>2026-09-06T14:16:00Z</Time><Position><LatitudeDegrees>48.8705</LatitudeDegrees><LongitudeDegrees>2.3380</LongitudeDegrees></Position><AltitudeMeters>37</AltitudeMeters><DistanceMeters>2400</DistanceMeters><HeartRateBpm><Value>151</Value></HeartRateBpm><Cadence>85</Cadence></Trackpoint>
          <Trackpoint><Time>2026-09-06T14:20:00Z</Time><Position><LatitudeDegrees>48.8730</LatitudeDegrees><LongitudeDegrees>2.3400</LongitudeDegrees></Position><AltitudeMeters>36</AltitudeMeters><DistanceMeters>3000</DistanceMeters><HeartRateBpm><Value>145</Value></HeartRateBpm><Cadence>84</Cadence></Trackpoint>
        </Track>
      </Lap>
    </Activity>
  </Activities>
</TrainingCenterDatabase>
